{"type": "FeatureCollection", "features": [ {"type": "Feature", "properties": {"norad_id": 34790, "name": "COSMOS 2251 DEB", "group": "cosmos-2251-debris", "lat": 56.63906616034974, "lon": -98.9011132394405, "alt_km": 844.2585288858781, "timestamp": "2025-12-17T09:00:17.543008+00:00", "meta": {"OBJECT_NAME": "COSMOS 2251 DEB", "OBJECT_ID": "1993-036AAT", "EPOCH": "2025-12-16T03:06:00.756288", "MEAN_MOTION": 14.24647069, "ECCENTRICITY": 0.0100683, "INCLINATION": 74.0536, "RA_OF_ASC_NODE": 237.6034, "ARG_OF_PERICENTER": 298.5207, "MEAN_ANOMALY": 212.8818, "EPHEMERIS_TYPE": 0, "CLASSIFICATION_TYPE": "U", "NORAD_CAT_ID": 34790, "ELEMENT_SET_NO": 999, "REV_AT_EPOCH": 86621, "BSTAR": 0.00059061008, "MEAN_MOTION_DOT": 1.421e-05, "MEAN_MOTION_DDOT": 0}, "tle": {"line1": "1 34790U 93036AAT 25350.12917542  .00001421  00000+0  59061-3 0  9991", "line2": "2 34790  74.0536 237.6034 0100683 298.5207 212.8818 14.24647069866212"}}, "geometry": {"type": "Point", "coordinates": [-98.9011132394405, 56.63906616034974]}}, {"type": "Feature", "properties": {"norad_id": 34792, "name": "COSMOS 2251 DEB", "group": "cosmos-2251-debris", "lat": 9.606528770272924, "lon": -21.86911229136261, "alt_km": 706.6798586876312, "timestamp": "2025-12-17T09:00:17.543018+00:00", "meta": {"OBJECT_NAME": "COSMOS 2251 DEB", "OBJECT_ID": "1993-036AAV", "EPOCH": "2025-12-16T12:41:46.558176", "MEAN_MOTION": 14.55986871, "ECCENTRICITY": 0.00124746, "INCLINATION": 74.0172, "RA_OF_ASC_NODE": 162.5169, "ARG_OF_PERICENTER": 256.8164, "MEAN_ANOMALY": 159.6626, "EPHEMERIS_TYPE": 0, "CLASSIFICATION_TYPE": "U", "NORAD_CAT_ID": 34792, "ELEMENT_SET_NO": 999, "REV_AT_EPOCH": 87705, "BSTAR": 0.00072892575, "MEAN_MOTION_DOT": 3.182e-05, "MEAN_MOTION_DDOT": 0}, "tle": {"line1": "1 34792U 93036AAV 25350.52901109  .00003182  00000+0  72893-3 0  9993", "line2": "2 34792  74.0172 162.5169 0012474 256.8164 159.6626 14.55986871877054"}}, "geometry": {"type": "Point", "coordinates": [-21.86911229136261, 9.606528770272924]}}, {"type": "Feature", "properties": {"norad_id": 34793, "name": "COSMOS 2251 DEB", "group": "cosmos-2251-debris", "lat": 18.749717520316864, "lon": -112.60789894499072, "alt_km": 728.0233507480416, "timestamp": "2025-12-17T09:00:17.543028+00:00", "meta": {"OBJECT_NAME": "COSMOS 2251 DEB", "OBJECT_ID": "1993-036AAW", "EPOCH": "2025-12-16T22:58:26.077728", "MEAN_MOTION": 14.38651689, "ECCENTRICITY": 0.00504774, "INCLINATION": 74.0024, "RA_OF_ASC_NODE": 242.5755, "ARG_OF_PERICENTER": 35.6003, "MEAN_ANOMALY": 340.4021, "EPHEMERIS_TYPE": 0, "CLASSIFICATION_TYPE": "U", "NORAD_CAT_ID": 34793, "ELEMENT_SET_NO": 999, "REV_AT_EPOCH": 87391, "BSTAR": 0.0002200452, "MEAN_MOTION_DOT": 6.58e-06, "MEAN_MOTION_DDOT": 0}, "tle": {"line1": "1 34793U 93036AAW 25350.95724627  .00000658  00000+0  22005-3 0  9994", "line2": "2 34793  74.0024 242.5755 0050477  35.6003 340.4021 14.38651689873918"}}, "geometry": {"type": "Point", "coordinates": [-112.60789894499072, 18.749717520316864]}}, {"type": "Feature", "properties": {"norad_id": 34796, "name": "COSMOS 2251 DEB", "group": "cosmos-2251-debris", "lat": -70.75255446870688, "lon": 152.5548525400127, "alt_km": 673.5614168875682, "timestamp": "2025-12-17T09:00:17.543038+00:00", "meta": {"OBJECT_NAME": "COSMOS 2251 DEB", "OBJECT_ID": "1993-036AAZ", "EPOCH": "2025-12-15T20:57:59.815872", "MEAN_MOTION": 14.48706583, "ECCENTRICITY": 0.01002779, "INCLINATION": 74.0299, "RA_OF_ASC_NODE": 210.4689, "ARG_OF_PERICENTER": 311.8419, "MEAN_ANOMALY": 61.4285, "EPHEMERIS_TYPE": 0, "CLASSIFICATION_TYPE": "U", "NORAD_CAT_ID": 34796, "ELEMENT_SET_NO": 999, "REV_AT_EPOCH": 88073, "BSTAR": 0.00041688974, "MEAN_MOTION_DOT": 1.644e-05, "MEAN_MOTION_DDOT": 0}, "tle": {"line1": "1 34796U 93036AAZ 25349.87360898  .00001644  00000+0  41689-3 0  9997", "line2": "2 34796  74.0299 210.4689 0100277 311.8419  61.4285 14.48706583880734"}}, "geometry": {"type": "Point", "coordinates": [152.5548525400127, -70.75255446870688]}}, {"type": "Feature", "properties": {"norad_id": 34797, "name": "COSMOS 2251 DEB", "group": "cosmos-2251-debris", "lat": -49.26876668720583, "lon": 71.85187082792521, "alt_km": 767.4539297189722, "timestamp": "2025-12-17T09:00:17.543048+00:00", "meta": {"OBJECT_NAME": "COSMOS 2251 DEB", "OBJECT_ID": "1993-036ABA", "EPOCH": "2025-12-16T14:56:37.002336", "MEAN_MOTION": 14.42882517, "ECCENTRICITY": 0.00715784, "INCLINATION": 73.9768, "RA_OF_ASC_NODE": 92.7489, "ARG_OF_PERICENTER": 205.6327, "MEAN_ANOMALY": 154.1276, "EPHEMERIS_TYPE": 0, "CLASSIFICATION_TYPE": "U", "NORAD_CAT_ID": 34797, "ELEMENT_SET_NO": 999, "REV_AT_EPOCH": 87471, "BSTAR": 0.0017768678, "MEAN_MOTION_DOT": 6.099e-05, "MEAN_MOTION_DDOT": 0}, "tle": {"line1": "1 34797U 93036ABA 25350.62265049  .00006099  00000+0  17769-2 0  9995", "line2": "2 34797  73.9768  92.7489 0071578 205.6327 154.1276 14.42882517874719"}}, "geometry": {"type": "Point", "coordinates": [71.85187082792521, -49.26876668720583]}}, {"type": "Feature", "properties": {"norad_id": 34814, "name": "COSMOS 2251 DEB", "group": "cosmos-2251-debris", "lat": -10.835195949056716, "lon": 140.01278872762276, "alt_km": 733.7975741462533, "timestamp": "2025-12-17T09:00:17.543058+00:00", "meta": {"OBJECT_NAME": "COSMOS 2251 DEB", "OBJECT_ID": "1993-036ABD", "EPOCH": "2025-12-15T06:16:46.279200", "MEAN_MOTION": 14.36906963, "ECCENTRICITY": 0.00560142, "INCLINATION": 73.8956, "RA_OF_ASC_NODE": 320.7607, "ARG_OF_PERICENTER": 209.789, "MEAN_ANOMALY": 212.7208, "EPHEMERIS_TYPE": 0, "CLASSIFICATION_TYPE": "U", "NORAD_CAT_ID": 34814, "ELEMENT_SET_NO": 999, "REV_AT_EPOCH": 87369, "BSTAR": 0.00061236247, "MEAN_MOTION_DOT": 1.818e-05, "MEAN_MOTION_DDOT": 0}, "tle": {"line1": "1 34814U 93036ABD 25349.26164675  .00001818  00000+0  61236-3 0  9999", "line2": "2 34814  73.8956 320.7607 0056014 209.7890 212.7208 14.36906963873698"}}, "geometry": {"type": "Point", "coordinates": [140.01278872762276, -10.835195949056716]}}, {"type": "Feature", "properties": {"norad_id": 34815, "name": "COSMOS 2251 DEB", "group": "cosmos-2251-debris", "lat": -40.41873527651196, "lon": -141.4027748376451, "alt_km": 601.1694994711324, "timestamp": "2025-12-17T09:00:17.543068+00:00", "meta": {"OBJECT_NAME": "COSMOS 2251 DEB", "OBJECT_ID": "1993-036ABE", "EPOCH": "2025-12-16T23:27:00.109440", "MEAN_MOTION": 14.78364553, "ECCENTRICITY": 0.00588472, "INCLINATION": 74.0451, "RA_OF_ASC_NODE": 233.4801, "ARG_OF_PERICENTER": 301.655, "MEAN_ANOMALY": 57.8893, "EPHEMERIS_TYPE": 0, "CLASSIFICATION_TYPE": "U", "NORAD_CAT_ID": 34815, "ELEMENT_SET_NO": 999, "REV_AT_EPOCH": 88690, "BSTAR": 0.00060673515, "MEAN_MOTION_DOT": 4.512e-05, "MEAN_MOTION_DDOT": 0}, "tle": {"line1": "1 34815U 93036ABE 25350.97708460  .00004512  00000+0  60674-3 0  9995", "line2": "2 34815  74.0451 233.4801 0058847 301.6550  57.8893 14.78364553886904"}}, "geometry": {"type": "Point", "coordinates": [-141.4027748376451, -40.41873527651196]}}, {"type": "Feature", "properties": {"norad_id": 34816, "name": "COSMOS 2251 DEB", "group": "cosmos-2251-debris", "lat": 60.52320400637071, "lon": 166.31710275585604, "alt_km": 1223.1726179872685, "timestamp": "2025-12-17T09:00:17.543078+00:00", "meta": {"OBJECT_NAME": "COSMOS 2251 DEB", "OBJECT_ID": "1993-036ABF", "EPOCH": "2025-12-15T18:06:42.079680", "MEAN_MOTION": 13.58332319, "ECCENTRICITY": 0.03733711, "INCLINATION": 73.8856, "RA_OF_ASC_NODE": 138.2013, "ARG_OF_PERICENTER": 202.1531, "MEAN_ANOMALY": 224.4448, "EPHEMERIS_TYPE": 0, "CLASSIFICATION_TYPE": "U", "NORAD_CAT_ID": 34816, "ELEMENT_SET_NO": 999, "REV_AT_EPOCH": 82824, "BSTAR": 0.0011149526, "MEAN_MOTION_DOT": 1.255e-05, "MEAN_MOTION_DDOT": 0}, "tle": {"line1": "1 34816U 93036ABF 25349.75465370  .00001255  00000+0  11150-2 0  9995", "line2": "2 34816  73.8856 138.2013 0373371 202.1531 224.4448 13.58332319828247"}}, "geometry": {"type": "Point", "coordinates": [166.31710275585604, 60.52320400637071]}}, {"type": "Feature", "properties": {"norad_id": 34818, "name": "COSMOS 2251 DEB", "group": "cosmos-2251-debris", "lat": -72.83573464008828, "lon": 176.35195017313288, "alt_km": 778.245783264585, "timestamp": "2025-12-17T09:00:17.543089+00:00", "meta": {"OBJECT_NAME": "COSMOS 2251 DEB", "OBJECT_ID": "1993-036ABH", "EPOCH": "2025-12-16T07:26:50.142048", "MEAN_MOTION": 14.3697169, "ECCENTRICITY": 0.00243056, "INCLINATION": 74.0362, "RA_OF_ASC_NODE": 290.3739, "ARG_OF_PERICENTER": 5.1622, "MEAN_ANOMALY": 152.1141, "EPHEMERIS_TYPE": 0, "CLASSIFICATION_TYPE": "U", "NORAD_CAT_ID": 34818, "ELEMENT_SET_NO": 999, "REV_AT_EPOCH": 87421, "BSTAR": 0.00020479169, "MEAN_MOTION_DOT": 5.82e-06, "MEAN_MOTION_DDOT": 0}, "tle": {"line1": "1 34818U 93036ABH 25350.31030257  .00000582  00000+0  20479-3 0  9990", "line2": "2 34818  74.0362 290.3739 0024305   5.1622 152.1141 14.36971690874214"}}, "geometry": {"type": "Point", "coordinates": [176.35195017313288, -72.83573464008828]}}, {"type": "Feature", "properties": {"norad_id": 34819, "name": "COSMOS 2251 DEB", "group": "cosmos-2251-debris", "lat": -73.79962391938707, "lon": 53.17217578657617, "alt_km": 679.3017321499883, "timestamp": "2025-12-17T09:00:17.543099+00:00", "meta": {"OBJECT_NAME": "COSMOS 2251 DEB", "OBJECT_ID": "1993-036ABJ", "EPOCH": "2025-12-16T02:47:00.153600", "MEAN_MOTION": 14.64020669, "ECCENTRICITY": 0.00156426, "INCLINATION": 74.0171, "RA_OF_ASC_NODE": 136.1678, "ARG_OF_PERICENTER": 230.4612, "MEAN_ANOMALY": 248.0037, "EPHEMERIS_TYPE": 0, "CLASSIFICATION_TYPE": "U", "NORAD_CAT_ID": 34819, "ELEMENT_SET_NO": 999, "REV_AT_EPOCH": 88278, "BSTAR": 0.0011169462, "MEAN_MOTION_DOT": 5.841e-05, "MEAN_MOTION_DDOT": 0}, "tle": {"line1": "1 34819U 93036ABJ 25350.11597400  .00005841  00000+0  11169-2 0  9995", "line2": "2 34819  74.0171 136.1678 0015642 230.4612 248.0037 14.64020669882780"}}, "geometry": {"type": "Point", "coordinates": [53.17217578657617, -73.79962391938707]}}]}